[Satellite]
VERSION=1.1
NAME=IRIDIUM 175
NICKNAME=IRIDIUM 175
TLE1=1 43928U 19002G   20157.59128939  .00000073  00000-0  76959-5 0  9990
TLE2=2 43928  86.6120 193.9647 0001869  76.8193 283.3233 14.72246670 75171
STATUS=0
